{
  "type": "FeatureCollection",
  "name": "thermoguard_demo_facilities",
  "crs": { "type": "name", "properties": { "name": "urn:ogc:def:crs:OGC:1.3:CRS84" } },
  "features": [
    {
      "type": "Feature",
      "properties": {
        "facility_id": "FAC-001",
        "facility_name": "Demo Chemical Plant",
        "context_type": "Industrial Facility"
      },
      "geometry": {
        "type": "Polygon",
        "coordinates": [[
          [78.9000, 12.3400],
          [78.9100, 12.3400],
          [78.9100, 12.3500],
          [78.9000, 12.3500],
          [78.9000, 12.3400]
        ]]
      }
    },
    {
      "type": "Feature",
      "properties": {
        "facility_id": "FAC-002",
        "facility_name": "Riverside Gas Flare Station",
        "context_type": "Industrial Facility"
      },
      "geometry": {
        "type": "Polygon",
        "coordinates": [[
          [78.7000, 12.5000],
          [78.7080, 12.5000],
          [78.7080, 12.5060],
          [78.7000, 12.5060],
          [78.7000, 12.5000]
        ]]
      }
    },
    {
      "type": "Feature",
      "properties": {
        "facility_id": "REG-CROP-01",
        "facility_name": "Kurnool Agricultural Belt",
        "context_type": "Agricultural Land"
      },
      "geometry": {
        "type": "Polygon",
        "coordinates": [[
          [78.0000, 15.8000],
          [78.0500, 15.8000],
          [78.0500, 15.8400],
          [78.0000, 15.8400],
          [78.0000, 15.8000]
        ]]
      }
    }
  ]
}
